2026-05-17 07:08:01 | DEBUG | strands_evaluation.instrumentation.agent_plugins | Tool result: {"dataset_id": "kramabench-astronomy-hard-9", "file_path": "files/TLE/43180.tle", "s3_uri": "s3://sana-kramabench/datagov/kramabench-astronomy-hard-9/files/TLE/43180.tle", "size_bytes": 18760, "family": "text", "preview_text": "1 43180U 18014A   24122.17811289  .00004675  00000-0  20621-3 0  9994\n2 43180  97.3997  30.6612 0001844  94.0751 266.0696 15.22259301346483\n1 43180U 18014A   24122.50678288  .00004115  00000-0  18187-3 0  9994\n2 43180  97.3997  30.9846 0001857  94.1140 266.0308 15.22260316346536\n1 43180U 18014A   24122.57251677  .00004137  00000-0  18285-3 0  9993\n2 43180  97.3997  31.0492 0001858  94.2381 265.9068 15.22260884346546\n1 43180U 18014A   24122.83545197  .00004297  00000-0  18979-3 0  9992\n2 43180  97.3997  31.3080 0001858  94.3570 265.7878 15.22263407346588\n1 43180U 18014A   24122.90118578  .00004251  00000-0  18778-3 0  9996\n2 43180  97.3997  31.3727 0001860  94.4232 265.7216 15.22263796346593\n1 43180U 18014A   24123.16412056  .00004295  00000-0  18969-3 0  9993\n2 43180  97.3998  31.6314 0001860  94.5499 265.5949 15.22265992346631\n1 43180U 18014A   24123.49278867  .00004307  00000-0  19017-3 0  9998\n2 43180  97.3998  31.9549 0001857  94.4479 265.6969 15.22268342346687\n1 43180U 18014A   24123.55852219  .00004336  00000-0  19143-3 0  9996\n2 43180  97.3998  32.0196 0001854  94.4563 265.6885 15.22268944346694\n1 43180U 18014A   24123.88718909  .00004202  00000-0  18560-3 0  9993\n2 43180  97.3999  32.3431 0001849  94.7531 265.3917 15.22271664346744\n1 43180U 18014A   24124.21585528  .00004755  00000-0  20959-3 0  9998\n2 43180  97.3999  32.6666 0001860  94.8010 265.3438 15.22276110346797", "row_count_estimate": 268}
2026-05-17 07:08:01 | INFO | strands_evaluation.instrumentation.agent_plugins | Executing: peek_file({"s3_uri": "datagov/kramabench-astronomy-hard-9/files/omni2_low_res/omni2_2024.dat", "max_rows": 20})
2026-05-17 07:08:01 | DEBUG | strands_evaluation.instrumentation.agent_plugins | Tool result: {"dataset_id": "kramabench-astronomy-hard-9", "file_path": "files/omni2_low_res/omni2_2024.dat", "s3_uri": "s3://sana-kramabench/datagov/kramabench-astronomy-hard-9/files/omni2_low_res/omni2_2024.dat", "size_bytes": 2881152, "family": "text", "preview_text": "2024   1  0 2596 51 52  60  36   5.3   5.1  -7.3 322.9   4.0  -3.0  -0.6  -2.8  -1.4   0.1   1.5   0.3   0.4   1.5   31114.   7.4  306.  -2.3   2.8 0.042  1.35    4691.   0.4    2.   0.3   1.3 0.007   0.43   1.75   7.9  7  55     0   20 999999.99 99999.99 99999.99 99999.99 99999.99 99999.99  0   3 131.2 999.9    -9    11  5.0\n2024   1  1 2596 51 52  53  33   5.4   5.2 -21.3 333.4   4.4  -2.2  -1.9  -1.6  -2.4   0.1   1.1   0.5   0.4   1.0   28455.   6.5  301.  -2.1   1.9 0.040  1.14    4102.   0.4    4.   0.4   1.2 0.008   0.72   1.45   7.1  7  55     2   25 999999.99 99999.99 99999.99 99999.99 99999.99 99999.99  0   3 131.2 999.9   -11    14  4.7\n2024   1  2 2596 51 52  63  33   4.5   4.1 -42.3 324.4   2.5  -1.8  -2.8  -1.0  -3.1   0.7   2.0   0.6   1.2   1.4   36413.   7.9  309.  -0.8   1.7 0.034  1.43    2767.   1.0    2.   0.6   1.0 0.008   0.96   2.67   9.7  7  55     4   32 999999.99 99999.99 99999.99 99999.99 99999.99 99999.99  0   3 131.2 999.9   -11    21  5.3\n2024   1  3 2596 51 52  58  34   4.2   3.9 -12.2 329.6   3.3  -1.9  -0.8  -1.7  -1.2   0.1   1.4   0.3   0.4   1.3   32023.   8.9  306.  -0.8   1.7 0.037  1.60    1565.   0.3    2.   0.2   0.3 0.003   0.37   3.37  10.9  3  55     5   29 999999.99 99999.99 99999.99 99999.99 99999.99 99999.99  0   2 131.2 999.9   -10    19  5.5\n2024   1  4 2596 51 52  62  34   4.2   4.1 -23.0 341.0   3.6  -1.2  -1.6  -0.9  -1.8   0.1   1.0   0.3   0.6   0.8   33006.   9.1  307.  -0.4   1.1 0.035  1.63    1953.   0.3    2.   0.4   0.4 0.003   0.55   3.46  11.0  3  55     3   33 999999.99 99999.99 99999.99 99999.99 99999.99 99999.99  0   2 131.2 999.9   -13    21  5.5\n2024   1  5 2596 51 52  63  31   4.4   3.6 -48.1   3.2   2.4   0.1  -2.7   0.5  -2.6   0.4   2....
2026-05-17 07:08:01 | INFO | strands_evaluation.instrumentation.agent_plugins | Executing: read_file({"s3_uri": "datagov/kramabench-astronomy-hard-9/files/omni2_low_res/omni2_2024.dat", "start_line": 0, "max_lines": 5})
2026-05-17 07:08:01 | DEBUG | strands_evaluation.instrumentation.agent_plugins | Tool result: {"dataset_id": "kramabench-astronomy-hard-9", "file_path": "files/omni2_low_res/omni2_2024.dat", "s3_uri": "s3://sana-kramabench/datagov/kramabench-astronomy-hard-9/files/omni2_low_res/omni2_2024.dat", "start_line": 0, "returned_lines": 5, "lines": ["2024   1  0 2596 51 52  60  36   5.3   5.1  -7.3 322.9   4.0  -3.0  -0.6  -2.8  -1.4   0.1   1.5   0.3   0.4   1.5   31114.   7.4  306.  -2.3   2.8 0.042  1.35    4691.   0.4    2.   0.3   1.3 0.007   0.43   1.75   7.9  7  55     0   20 999999.99 99999.99 99999.99 99999.99 99999.99 99999.99  0   3 131.2 999.9    -9    11  5.0", "2024   1  1 2596 51 52  53  33   5.4   5.2 -21.3 333.4   4.4  -2.2  -1.9  -1.6  -2.4   0.1   1.1   0.5   0.4   1.0   28455.   6.5  301.  -2.1   1.9 0.040  1.14    4102.   0.4    4.   0.4   1.2 0.008   0.72   1.45   7.1  7  55     2   25 999999.99 99999.99 99999.99 99999.99 99999.99 99999.99  0   3 131.2 999.9   -11    14  4.7", "2024   1  2 2596 51 52  63  33   4.5   4.1 -42.3 324.4   2.5  -1.8  -2.8  -1.0  -3.1   0.7   2.0   0.6   1.2   1.4   36413.   7.9  309.  -0.8   1.7 0.034  1.43    2767.   1.0    2.   0.6   1.0 0.008   0.96   2.67   9.7  7  55     4   32 999999.99 99999.99 99999.99 99999.99 99999.99 99999.99  0   3 131.2 999.9   -11    21  5.3", "2024   1  3 2596 51 52  58  34   4.2   3.9 -12.2 329.6   3.3  -1.9  -0.8  -1.7  -1.2   0.1   1.4   0.3   0.4   1.3   32023.   8.9  306.  -0.8   1.7 0.037  1.60    1565.   0.3    2.   0.2   0.3 0.003   0.37   3.37  10.9  3  55     5   29 999999.99 99999.99 99999.99 99999.99 99999.99 99999.99  0   2 131.2 999.9   -10    19  5.5", "2024   1  4 2596 51 52  62  34   4.2   4.1 -23.0 341.0   3.6  -1.2  -1.6  -0.9  -1.8   0.1   1.0   0.3   0.6   0.8   33006.   9.1  307.  -0.4   1.1 0.035  1.63    1953.   0.3    2.   0.4   0.4 0.003   0.55   3.46  11.0  3  55     3   33 999999.99 99999.99 99999.99 99999.99 99999.99 99999.99  0   2 131.2 999.9   -13    21  5.5"]}
2026-05-17 07:08:01 | INFO | strands_evaluation.instrumentation.agent_plugins | 
--- Turn 3 (elapsed: 3.2s) ---
2026-05-17 07:08:04 | DEBUG | strands_evaluation.instrumentation.agent_plugins | Model response #3 [stop_reason=tool_use]
2026-05-17 07:08:04 | DEBUG | strands_evaluation.instrumentation.agent_plugins | Model response #3 [role=assistant block=1 tool_use] execute_ideal({"intent": "Compute best lag 0..48 maximizing r^2 between TLE semi-major axis change (km) and OMNI2 hourly AP for May 1-30 2024, using epoch times rounded to nearest hour and AP extracted from omni2_2024.dat fixed-width columns.", "s3_uri": "s3://sana-kramabench/datagov/kramabench-astronomy-hard-9/files/omni2_low_res/omni2_2024.dat", "code": "import pandas as pd, numpy as np, re, math\n\n# --- Load OMNI2 ---\nomni_s3 = \"s3://sana-kramabench/datagov/kramabench-astronomy-hard-9/files/omni2_low_res/omni2_2024.dat\"\nimport fsspec\nfs = fsspec.filesystem('s3', anon=False)\n\n# Read as whitespace-delimited since fixed-width may vary; AP likely present as integer after some fields.\n# We'll parse by taking columns by position as per common OMNI2 format: year mo dy hr ... then ap values.\n# The provided data rows show: year month day doy? then hour min? Actually columns start: 2024 1 0 2596 ... indicates DOY then? Hmm.\n# We'll instead extract AP field by searching header spec in omni2.text via peek_file not provided.\n# Use heuristic: AP index appears as one of integer columns near the end: e.g. in preview, near end: \"... 7 55 0 20 ...\" and earlier \"... 7 55\".\n# Commonly OMNI2: ... Kp, Ap (9 values) and Ap_index. We need the hourly AP index (Ap).\n\n# Let's download locally for robust parsing\n"}) [toolUseId=call_5nM6sMmLegaSCcPDlRTCreAp]
2026-05-17 07:08:04 | INFO | strands_evaluation.instrumentation.agent_plugins | Executing: execute_ideal({"intent": "Compute best lag 0..48 maximizing r^2 between TLE semi-major axis change (km) and OMNI2 hourly AP for May 1-30 2024, using epoch times rounded to nearest hour and AP extracted from omni2_2024.dat fixed-width columns.", "s3_uri": "s3://sana-kramabench/datagov/kramabench-astronomy-hard-9/files/omni2_low_res/omni2_2024.dat", "code": "import pandas as pd, numpy as np, re, math\n\n# --- Load OMNI2 ---\nomni_s3 = \"s3://sana-kramabench/datagov/kramabench-astronomy-hard-9/files/omni2_low_res/omni2_2024.dat\"\nimport fsspec\nfs = fsspec.filesystem('s3', anon=False)\n\n# Read as whitespace-delimited since fixed-width may vary; AP likely present as integer after some fields.\n# We'll parse by taking columns by position as per common OMNI2 format: year mo dy hr ... then ap values.\n# The provided data rows show: year month day doy? then hour min? Actually columns start: 2024 1 0 2596 ... indicates DOY then? Hmm.\n# We'll instead extract AP field by searching header spec in omni2.text via peek_file not provided.\n# Use heuristic: AP index appears as one of integer columns near the end: e.g. in preview, near end: \"... 7 55 0 20 ...\" and earlier \"... 7 55\".\n# Commonly OMNI2: ... Kp, Ap (9 values) and Ap_index. We need the hourly AP index (Ap).\n\n# Let's download locally for robust parsing\n"})
2026-05-17 07:08:05 | DEBUG | strands_evaluation.instrumentation.agent_plugins | Model response #1 [stop_reason=tool_use]
